[{"OBJECT_NAME":"OPS 9442 (DSCS 2-12) DEB","OBJECT_ID":"1978-113E","EPOCH":"2026-03-14T01:42:22.890528","MEAN_MOTION":0.98455226,"ECCENTRICITY":0.01723232,"INCLINATION":8.3816,"RA_OF_ASC_NODE":303.0874,"ARG_OF_PERICENTER":83.1318,"MEAN_ANOMALY":278.7752,"EPHEMERIS_TYPE":0,"CLASSIFICATION_TYPE":"U","NORAD_CAT_ID":59989,"ELEMENT_SET_NO":999,"REV_AT_EPOCH":4428,"BSTAR":0,"MEAN_MOTION_DOT":-1.84e-6,"MEAN_MOTION_DDOT":0},{"OBJECT_NAME":"OPS 9442 (DSCS 2-12) DEB","OBJECT_ID":"1978-113F","EPOCH":"2026-03-14T12:32:48.933312","MEAN_MOTION":0.98218337,"ECCENTRICITY":0.01519611,"INCLINATION":8.6092,"RA_OF_ASC_NODE":303.0748,"ARG_OF_PERICENTER":121.3354,"MEAN_ANOMALY":63.6375,"EPHEMERIS_TYPE":0,"CLASSIFICATION_TYPE":"U","NORAD_CAT_ID":59990,"ELEMENT_SET_NO":999,"REV_AT_EPOCH":4416,"BSTAR":0,"MEAN_MOTION_DOT":-2.71e-6,"MEAN_MOTION_DDOT":0},{"OBJECT_NAME":"OPS 9442 (DSCS 2-12) DEB","OBJECT_ID":"1978-113G","EPOCH":"2026-02-15T20:07:36.518304","MEAN_MOTION":0.98449699,"ECCENTRICITY":0.01501448,"INCLINATION":8.3852,"RA_OF_ASC_NODE":304.1665,"ARG_OF_PERICENTER":138.9688,"MEAN_ANOMALY":87.8602,"EPHEMERIS_TYPE":0,"CLASSIFICATION_TYPE":"U","NORAD_CAT_ID":59991,"ELEMENT_SET_NO":999,"REV_AT_EPOCH":4299,"BSTAR":0,"MEAN_MOTION_DOT":-6.0e-8,"MEAN_MOTION_DDOT":0},{"OBJECT_NAME":"OPS 9442 (DSCS 2-12) DEB","OBJECT_ID":"1978-113H","EPOCH":"2026-03-13T07:52:18.410304","MEAN_MOTION":0.98332539,"ECCENTRICITY":0.02273481,"INCLINATION":8.5613,"RA_OF_ASC_NODE":303.5887,"ARG_OF_PERICENTER":93.5615,"MEAN_ANOMALY":107.3621,"EPHEMERIS_TYPE":0,"CLASSIFICATION_TYPE":"U","NORAD_CAT_ID":59992,"ELEMENT_SET_NO":999,"REV_AT_EPOCH":5794,"BSTAR":0,"MEAN_MOTION_DOT":-2.6e-7,"MEAN_MOTION_DDOT":0},{"OBJECT_NAME":"VELA 11/12 INTERSTAGE","OBJECT_ID":"1970-027D","EPOCH":"2026-03-02T19:36:14.923296","MEAN_MOTION":0.45892478,"ECCENTRICITY":0.7958559,"INCLINATION":18.4546,"RA_OF_ASC_NODE":34.8971,"ARG_OF_PERICENTER":284.7422,"MEAN_ANOMALY":0.0479,"EPHEMERIS_TYPE":0,"CLASSIFICATION_TYPE":"U","NORAD_CAT_ID":60002,"ELEMENT_SET_NO":999,"REV_AT_EPOCH":2049,"BSTAR":0,"MEAN_MOTION_DOT":-9.32e-6,"MEAN_MOTION_DDOT":0},{"OBJECT_NAME":"ASTRA 1P (SES-24)","OBJECT_ID":"2024-115A","EPOCH":"2026-03-12T09:20:38.613120","MEAN_MOTION":1.00269354,"ECCENTRICITY":0.0004591,"INCLINATION":0.0525,"RA_OF_ASC_NODE":348.7446,"ARG_OF_PERICENTER":336.6618,"MEAN_ANOMALY":3.9688,"EPHEMERIS_TYPE":0,"CLASSIFICATION_TYPE":"U","NORAD_CAT_ID":60086,"ELEMENT_SET_NO":999,"REV_AT_EPOCH":622,"BSTAR":0,"MEAN_MOTION_DOT":1.2e-6,"MEAN_MOTION_DDOT":0},{"OBJECT_NAME":"FALCON 9 R/B","OBJECT_ID":"2024-115B","EPOCH":"2026-03-14T03:47:43.391040","MEAN_MOTION":1.44127393,"ECCENTRICITY":0.79706093,"INCLINATION":27.4454,"RA_OF_ASC_NODE":295.9241,"ARG_OF_PERICENTER":28.628,"MEAN_ANOMALY":358.1166,"EPHEMERIS_TYPE":0,"CLASSIFICATION_TYPE":"U","NORAD_CAT_ID":60087,"ELEMENT_SET_NO":999,"REV_AT_EPOCH":908,"BSTAR":0.003519901,"MEAN_MOTION_DOT":1.125e-5,"MEAN_MOTION_DDOT":0},{"OBJECT_NAME":"GOES 19","OBJECT_ID":"2024-119A","EPOCH":"2026-03-14T13:17:07.184832","MEAN_MOTION":1.00271909,"ECCENTRICITY":0.00011049,"INCLINATION":0.0399,"RA_OF_ASC_NODE":331.225,"ARG_OF_PERICENTER":70.9444,"MEAN_ANOMALY":254.0878,"EPHEMERIS_TYPE":0,"CLASSIFICATION_TYPE":"U","NORAD_CAT_ID":60133,"ELEMENT_SET_NO":999,"REV_AT_EPOCH":601,"BSTAR":0,"MEAN_MOTION_DOT":-2.49e-6,"MEAN_MOTION_DDOT":0},{"OBJECT_NAME":"ZHONGXING-3A","OBJECT_ID":"2024-122A","EPOCH":"2026-03-09T14:19:27.045984","MEAN_MOTION":1.00269222,"ECCENTRICITY":0.0002372,"INCLINATION":0.0034,"RA_OF_ASC_NODE":91.8519,"ARG_OF_PERICENTER":339.1453,"MEAN_ANOMALY":52.6833,"EPHEMERIS_TYPE":0,"CLASSIFICATION_TYPE":"U","NORAD_CAT_ID":60179,"ELEMENT_SET_NO":999,"REV_AT_EPOCH":631,"BSTAR":0,"MEAN_MOTION_DOT":-3.11e-6,"MEAN_MOTION_DDOT":0},{"OBJECT_NAME":"TURKSAT 6A","OBJECT_ID":"2024-127A","EPOCH":"2026-03-14T13:50:33.977760","MEAN_MOTION":1.00272504,"ECCENTRICITY":0.00019942,"INCLINATION":0.038,"RA_OF_ASC_NODE":214.5135,"ARG_OF_PERICENTER":98.8249,"MEAN_ANOMALY":108.4721,"EPHEMERIS_TYPE":0,"CLASSIFICATION_TYPE":"U","NORAD_CAT_ID":60233,"ELEMENT_SET_NO":999,"REV_AT_EPOCH":606,"BSTAR":0,"MEAN_MOTION_DOT":1.45e-6,"MEAN_MOTION_DDOT":0},{"OBJECT_NAME":"FALCON 9 R/B","OBJECT_ID":"2024-127B","EPOCH":"2026-03-13T07:12:34.406208","MEAN_MOTION":1.03921295,"ECCENTRICITY":0.83473409,"INCLINATION":26.9896,"RA_OF_ASC_NODE":22.8633,"ARG_OF_PERICENTER":329.7513,"MEAN_ANOMALY":1.456,"EPHEMERIS_TYPE":0,"CLASSIFICATION_TYPE":"U","NORAD_CAT_ID":60234,"ELEMENT_SET_NO":999,"REV_AT_EPOCH":609,"BSTAR":0.0055159465,"MEAN_MOTION_DOT":-1.01e-6,"MEAN_MOTION_DDOT":0},{"OBJECT_NAME":"YZ-1S R/B","OBJECT_ID":"2024-048E","EPOCH":"2026-03-11T06:27:47.618496","MEAN_MOTION":0.47350856,"ECCENTRICITY":0.89693763,"INCLINATION":17.2921,"RA_OF_ASC_NODE":314.1444,"ARG_OF_PERICENTER":229.183,"MEAN_ANOMALY":359.3704,"EPHEMERIS_TYPE":0,"CLASSIFICATION_TYPE":"U","NORAD_CAT_ID":60326,"ELEMENT_SET_NO":999,"REV_AT_EPOCH":326,"BSTAR":0,"MEAN_MOTION_DOT":-1.29e-5,"MEAN_MOTION_DDOT":0},{"OBJECT_NAME":"HULIANWAN GAOGUI-02 (HG-02)","OBJECT_ID":"2024-135A","EPOCH":"2026-03-12T23:00:27.632160","MEAN_MOTION":1.00270018,"ECCENTRICITY":0.00078907,"INCLINATION":0.0414,"RA_OF_ASC_NODE":351.2013,"ARG_OF_PERICENTER":356.2626,"MEAN_ANOMALY":321.4127,"EPHEMERIS_TYPE":0,"CLASSIFICATION_TYPE":"U","NORAD_CAT_ID":60327,"ELEMENT_SET_NO":999,"REV_AT_EPOCH":653,"BSTAR":0,"MEAN_MOTION_DOT":-1.73e-6,"MEAN_MOTION_DDOT":0},{"OBJECT_NAME":"ASBM-1","OBJECT_ID":"2024-143A","EPOCH":"2026-03-09T18:44:15.505728","MEAN_MOTION":1.50423764,"ECCENTRICITY":0.5570463,"INCLINATION":62.7839,"RA_OF_ASC_NODE":49.3612,"ARG_OF_PERICENTER":269.1189,"MEAN_ANOMALY":30.1968,"EPHEMERIS_TYPE":0,"CLASSIFICATION_TYPE":"U","NORAD_CAT_ID":60422,"ELEMENT_SET_NO":999,"REV_AT_EPOCH":1012,"BSTAR":0,"MEAN_MOTION_DOT":-5.1e-7,"MEAN_MOTION_DDOT":0},{"OBJECT_NAME":"ASBM-2","OBJECT_ID":"2024-143B","EPOCH":"2026-03-12T18:33:09.001440","MEAN_MOTION":1.50423746,"ECCENTRICITY":0.55676052,"INCLINATION":62.7544,"RA_OF_ASC_NODE":49.3167,"ARG_OF_PERICENTER":269.1785,"MEAN_ANOMALY":30.1925,"EPHEMERIS_TYPE":0,"CLASSIFICATION_TYPE":"U","NORAD_CAT_ID":60423,"ELEMENT_SET_NO":999,"REV_AT_EPOCH":1015,"BSTAR":0,"MEAN_MOTION_DOT":-2.1e-7,"MEAN_MOTION_DDOT":0},{"OBJECT_NAME":"ZHONGXING-4A","OBJECT_ID":"2024-151A","EPOCH":"2026-03-14T14:12:24.383232","MEAN_MOTION":1.00270484,"ECCENTRICITY":0.00013752,"INCLINATION":1.5605,"RA_OF_ASC_NODE":271.8284,"ARG_OF_PERICENTER":102.3133,"MEAN_ANOMALY":129.3651,"EPHEMERIS_TYPE":0,"CLASSIFICATION_TYPE":"U","NORAD_CAT_ID":60606,"ELEMENT_SET_NO":999,"REV_AT_EPOCH":580,"BSTAR":0,"MEAN_MOTION_DOT":-3.65e-6,"MEAN_MOTION_DDOT":0},{"OBJECT_NAME":"HULIANWAN GAOGUI-03 (HG-03)","OBJECT_ID":"2024-181A","EPOCH":"2026-03-13T19:03:21.772800","MEAN_MOTION":1.00271087,"ECCENTRICITY":7.031e-5,"INCLINATION":0.0425,"RA_OF_ASC_NODE":356.0104,"ARG_OF_PERICENTER":104.1382,"MEAN_ANOMALY":279.9753,"EPHEMERIS_TYPE":0,"CLASSIFICATION_TYPE":"U","NORAD_CAT_ID":61503,"ELEMENT_SET_NO":999,"REV_AT_EPOCH":586,"BSTAR":0,"MEAN_MOTION_DOT":-2.41e-6,"MEAN_MOTION_DDOT":0}]
